LEMUR-2-PAPPY           
1 44861U 19089K   22031.79892073  .00006224  00000+0  49027-3 0  9991
2 44861  36.9641 190.3483 0005385 193.1330 166.9272 15.00506653117398
LEMUR-2-THEODOSIA       
1 44863U 19089M   22031.83500932  .00003876  00000+0  30738-3 0  9997
2 44863  36.9637 189.6994 0005476 196.1978 163.8590 15.00558353117310
BEIDOU-3 M19            
1 44864U 19090A   22031.58801354 -.00000026  00000+0  00000+0 0  9994
2 44864  55.3362 116.1740 0016643 265.0275 156.1768  1.86231784 14480
BEIDOU-3 M20            
1 44865U 19090B   22031.80690697 -.00000025  00000+0  00000+0 0  9995
2 44865  55.3382 116.1976 0014619 279.0774  18.7742  1.86231736 14453
JCSAT-18 (KACIFIC 1)    
1 44868U 19091A   22031.97357008 -.00000212  00000+0  00000+0 0  9991
2 44868   0.0161 127.6428 0000388 222.5239 281.4439  1.00269630  8077
CSG-1                   
1 44873U 19092A   22032.08961100  .00000157  00000+0  26290-4 0  9996
2 44873  97.8825 217.7224 0001426  84.0220 276.1154 14.82157673114906
CHEOPS                  
1 44874U 19092B   22031.79867449  .00000173  00000+0  48758-4 0  9996
2 44874  98.2353 220.3800 0011701  43.2238 316.9876 14.56907889112894
ANGELS                  
1 44876U 19092D   22032.03742276  .00002096  00000+0  10874-3 0  9999
2 44876  97.4691 217.2345 0013687 109.8212 250.4498 15.17163606117556
EYESAT-NANO             
1 44877U 19092E   22031.46908883  .00009599  00000+0  45322-3 0  9995
2 44877  97.4594 217.1216 0013721 112.1747 248.0945 15.19562941117540
OPS-SAT                 
1 44878U 19092F   22031.75109108  .00007937  00000+0  39568-3 0  9990
2 44878  97.4746 217.1347 0014685  95.6530 264.6378 15.17719435117443
2019-093A               
1 44879U 19093A   22032.11288871  .00000693  00000+0  94345-4 0  9995
2 44879  97.9077 113.4151 0013633 267.8392  92.1269 14.81819660114607
2019-093B               
1 44880U 19093B   22032.11193520  .00000683  00000+0  93086-4 0  9993
2 44880  97.9085 113.4421 0013723 269.1691  90.7959 14.81826925114595
CAS-6 (TIANQIN 1)       
1 44881U 19093C   22032.15949681  .00000248  00000+0  38358-4 0  9993
2 44881  97.9059 113.2784 0013537 270.0834  89.8839 14.81552603114595
2019-093D               
1 44882U 19093D   22032.18310780  .00000993  00000+0  13157-3 0  9995
2 44882  97.9126 114.0293 0014710 270.1447  89.8101 14.82055785114615
CBERS 4A                
1 44883U 19093E   22031.64439784  .00000282  00000+0  42641-4 0  9994
2 44883  97.9080 112.9565 0000752 105.1754 254.9501 14.81540956114531
2019-093F               
1 44884U 19093F   22032.15672318  .00000888  00000+0  11760-3 0  9993
2 44884  97.9069 113.8276 0012296 274.5740  85.4081 14.82335320114639
FLORIPASAT-1            
1 44885U 19093G   22032.17248491  .00000951  00000+0  12465-3 0  9991
2 44885  97.9085 114.2610 0013171 277.2622  82.7113 14.82598007114658
2019-093H               
1 44886U 19093H   22032.15140559  .00000636  00000+0  85218-4 0  9993
2 44886  97.9115 114.7957 0013800 283.1768  76.7916 14.82777308114677
2019-093J               
1 44887U 19093J   22032.17424363  .00000492  00000+0  67552-4 0  9995
2 44887  97.9099 114.6844 0013685 282.8687  77.1013 14.82670265114677
ELEKTRO-L 3             
1 44903U 19095A   22031.91491962 -.00000108  00000+0  00000+0 0  9991
2 44903   0.0452 107.4350 0000999 205.0682 223.9708  1.00271504  7708
GONETS-M 14             
1 44905U 19096A   22031.82246660  .00000039  00000+0  21298-3 0  9995
2 44905  82.5267 354.9317 0015168  42.5667 317.6586 12.42878947 95267
GONETS-M 15             
1 44906U 19096B   22031.76869303  .00000033  00000+0  16336-3 0  9995
2 44906  82.5291 355.1526 0017145  63.1989 297.0842 12.42879208 95248
GONETS-M 16             
1 44907U 19096C   22031.71255505  .00000037  00000+0  19414-3 0  9998
2 44907  82.5236 354.8565 0012949 100.3119 259.9417 12.42872247 95233
RS-44 & BREEZE-KM R/B   
1 44909U 19096E   22031.91898004  .00000005  00000+0 -15761-4 0  9997
2 44909  82.5245 321.0031 0216327 279.0743  78.5938 12.79712064 98047
SHIJIAN-20 (SJ-20)      
1 44910U 19097A   22031.94771553 -.00000218  00000+0  00000+0 0  9993
2 44910   0.8267  93.2252 0005767 292.8649 173.7108  1.00269478  7686
STARLINK-1073           
1 44914U 20001A   22031.83874014  .00001279  00000+0  10477-3 0  9998
2 44914  53.0531 230.7320 0001792  75.7483 284.3704 15.06392060114085
STARLINK-1084           
1 44915U 20001B   22031.86823935  .00000512  00000+0  53257-4 0  9991
2 44915  53.0512 230.5962 0001893  80.1732 279.9470 15.06393857114090
STARLINK-1098           
1 44917U 20001D   22031.87191988  .00001432  00000+0  11506-3 0  9992
2 44917  53.0531 230.5873 0001754  69.1724 290.9452 15.06388688114097
STARLINK-1099           
1 44918U 20001E   22031.88296777  .00000577  00000+0  57670-4 0  9998
2 44918  53.0508 230.5439 0001654  75.9990 284.1183 15.06398708114831
STARLINK-1102           
1 44920U 20001G   22031.83136324  .00000669  00000+0  63807-4 0  9998
2 44920  53.0537 230.7677 0001932  71.7055 288.4145 15.06399637114081
STARLINK-1103           
1 44921U 20001H   22032.05252919  .00000734  00000+0  68175-4 0  9999
2 44921  53.0524 229.7698 0002330  76.1612 283.9636 15.06394095114099
STARLINK-1104           
1 44922U 20001J   22031.82030902  .00000524  00000+0  54051-4 0  9995
2 44922  53.0527 230.8093 0001741  74.1587 285.9594 15.06399046114084
STARLINK-1106           
1 44923U 20001K   22031.84611060 -.00000030  00000+0  16869-4 0  9996
2 44923  53.0525 230.6942 0001829  75.1636 284.9555 15.06405049114084
STARLINK-1111           
1 44924U 20001L   22031.90141432  .00003865  00000+0  27815-3 0  9995
2 44924  53.0527 230.4540 0001880  77.5838 282.5361 15.06407504114094
STARLINK-1112           
1 44925U 20001M   22031.84980543 -.00000452  00000+0 -11431-4 0  9992
2 44925  53.0536 230.6785 0002135  66.7812 293.3401 15.06391029114082
STARLINK-1113           
1 44926U 20001N   22031.85162617  .00002080  00000+0  16187-3 0  9997
2 44926  52.9999 230.6748 0002038  89.7338 270.3884 15.05593429114800
STARLINK-1114           
1 44927U 20001P   22031.86085930 -.00000084  00000+0  13289-4 0  9995
2 44927  53.0530 230.6274 0001966  73.4075 286.7130 15.06393365114099
STARLINK-1119           
1 44928U 20001Q   22031.85716773  .00000386  00000+0  44850-4 0  9993
2 44928  53.0521 230.6584 0001864  75.6498 284.4698 15.06403782114093
STARLINK-1121           
1 44929U 20001R   22031.77607581  .00001399  00000+0  11278-3 0  9993
2 44929  53.0531 231.0056 0001810  73.4602 286.6586 15.06400214114073
STARLINK-1123           
1 44930U 20001S   22031.87561522  .00004845  00000+0  34394-3 0  9993
2 44930  53.0511 230.5673 0001733  71.5708 288.5470 15.06396972114092
STARLINK-1128           
1 44931U 20001T   22031.84510473  .00004163  00000+0  27063-3 0  9998
2 44931  53.0514 229.2155 0002988 110.3600 249.7712 15.10040848114857
STARLINK-1130 (DARKSAT) 
1 44932U 20001U   22031.99723604  .00000554  00000+0  56077-4 0  9995
2 44932  53.0532 230.0268 0001705  71.8920 288.2254 15.06395153115346
STARLINK-1144           
1 44933U 20001V   22031.89034462 -.00000300  00000+0 -12237-5 0  9994
2 44933  53.0542 230.5059 0001800  83.0932 277.0262 15.06394139115387
STARLINK-1071           
1 44934U 20001W   22031.83690051  .00004536  00000+0  32320-3 0  9997
2 44934  53.0527 210.7430 0001641  90.0644 270.0533 15.06404018114364
STARLINK-1079           
1 44937U 20001Z   22031.88113294  .00003490  00000+0  25306-3 0  9998
2 44937  53.0523 210.5466 0001938  81.4366 278.6842 15.06399725114370
STARLINK-1082           
1 44938U 20001AA  22031.91430138 -.00000310  00000+0 -19384-5 0  9993
2 44938  53.0537 210.3943 0001640  62.3016 297.8139 15.06396542114370
STARLINK-1083           
1 44939U 20001AB  22031.98802178  .00003453  00000+0  25056-3 0  9998
2 44939  53.0520 210.0653 0001926  74.9565 285.1637 15.06406739114387
STARLINK-1091           
1 44940U 20001AC  22031.86640301  .00007384  00000+0  51390-3 0  9992
2 44940  53.0520 210.6065 0002070  83.4298 276.6926 15.06413557114361
STARLINK-1094           
1 44941U 20001AD  22031.88851177  .00008106  00000+0  56228-3 0  9998
2 44941  53.0522 210.5093 0001422  65.0739 295.0398 15.06412746114378
STARLINK-1096           
1 44942U 20001AE  22031.87376424  .00001329  00000+0  10810-3 0  9992
2 44942  53.0531 210.5755 0002024  79.3961 280.7256 15.06395642114377
STARLINK-1100           
1 44943U 20001AF  22031.85163784  .00002390  00000+0  17925-3 0  9997
2 44943  53.0523 210.6788 0001942  79.1280 280.9928 15.06403638114368
STARLINK-1108           
1 44944U 20001AG  22031.83320935 -.00000017  00000+0  17778-4 0  9991
2 44944  53.0537 210.7572 0002154  76.7089 283.4140 15.06399141114369
STARLINK-1109           
1 44945U 20001AH  22031.86271869 -.00001989  00000+0 -11474-3 0  9992
2 44945  53.0534 210.6201 0001666  78.8451 281.2725 15.06377850114366
STARLINK-1110           
1 44946U 20001AJ  22031.83599883  .00006059  00000+0  39008-3 0  9993
2 44946  53.0028 204.6615 0002987 113.0023 247.1282 15.09624898114427
STARLINK-1116           
1 44947U 20001AK  22032.01749720  .00001786  00000+0  13874-3 0  9997
2 44947  53.0521 209.9219 0001520  74.3435 285.7722 15.06405119114395
STARLINK-1122           
1 44949U 20001AM  22031.91062187  .00001242  00000+0  10226-3 0  9997
2 44949  53.0528 210.4179 0001996  73.7276 286.3932 15.06398518114371
STARLINK-1125           
1 44950U 20001AN  22031.85900786 -.00000846  00000+0 -37920-4 0  9990
2 44950  53.0525 210.6412 0001821  78.6339 281.4855 15.06404322114363
STARLINK-1126           
1 44951U 20001AP  22031.97752726  .00005688  00000+0  36893-3 0  9997
2 44951  53.0020 204.6632 0003109 111.3545 248.7777 15.09464174115720
STARLINK-1117           
1 44952U 20001AQ  22031.89220373  .00005643  00000+0  39759-3 0  9992
2 44952  53.0538 210.4934 0001571  71.5184 288.5976 15.06386165114375
